{
  "type": "FeatureCollection",
  "name": "hudhud_territories",
  "crs": {
    "type": "name",
    "properties": {
      "name": "urn:ogc:def:crs:OGC:1.3:CRS84"
    }
  },
  "features": [
    {
      "type": "Feature",
      "properties": {
        "territory_id": "RYD-C",
        "name_en": "Riyadh Central",
        "name_ar": "الرياض - الوسط",
        "city": "Riyadh",
        "weight": 12
      },
      "geometry": {
        "type": "Polygon",
        "coordinates": [
          [
            [
              46.65,
              24.63
            ],
            [
              46.75,
              24.63
            ],
            [
              46.75,
              24.73
            ],
            [
              46.65,
              24.73
            ],
            [
              46.65,
              24.63
            ]
          ]
        ]
      }
    },
    {
      "type": "Feature",
      "properties": {
        "territory_id": "RYD-N",
        "name_en": "Riyadh North",
        "name_ar": "الرياض - الشمال",
        "city": "Riyadh",
        "weight": 14
      },
      "geometry": {
        "type": "Polygon",
        "coordinates": [
          [
            [
              46.58,
              24.73
            ],
            [
              46.82,
              24.73
            ],
            [
              46.82,
              24.92
            ],
            [
              46.58,
              24.92
            ],
            [
              46.58,
              24.73
            ]
          ]
        ]
      }
    },
    {
      "type": "Feature",
      "properties": {
        "territory_id": "RYD-S",
        "name_en": "Riyadh South",
        "name_ar": "الرياض - الجنوب",
        "city": "Riyadh",
        "weight": 9
      },
      "geometry": {
        "type": "Polygon",
        "coordinates": [
          [
            [
              46.58,
              24.45
            ],
            [
              46.82,
              24.45
            ],
            [
              46.82,
              24.63
            ],
            [
              46.58,
              24.63
            ],
            [
              46.58,
              24.45
            ]
          ]
        ]
      }
    },
    {
      "type": "Feature",
      "properties": {
        "territory_id": "RYD-E",
        "name_en": "Riyadh East",
        "name_ar": "الرياض - الشرق",
        "city": "Riyadh",
        "weight": 10
      },
      "geometry": {
        "type": "Polygon",
        "coordinates": [
          [
            [
              46.75,
              24.58
            ],
            [
              46.98,
              24.58
            ],
            [
              46.98,
              24.8
            ],
            [
              46.75,
              24.8
            ],
            [
              46.75,
              24.58
            ]
          ]
        ]
      }
    },
    {
      "type": "Feature",
      "properties": {
        "territory_id": "RYD-W",
        "name_en": "Riyadh West",
        "name_ar": "الرياض - الغرب",
        "city": "Riyadh",
        "weight": 8
      },
      "geometry": {
        "type": "Polygon",
        "coordinates": [
          [
            [
              46.42,
              24.58
            ],
            [
              46.65,
              24.58
            ],
            [
              46.65,
              24.8
            ],
            [
              46.42,
              24.8
            ],
            [
              46.42,
              24.58
            ]
          ]
        ]
      }
    },
    {
      "type": "Feature",
      "properties": {
        "territory_id": "JED-C",
        "name_en": "Jeddah Central",
        "name_ar": "جدة - الوسط",
        "city": "Jeddah",
        "weight": 11
      },
      "geometry": {
        "type": "Polygon",
        "coordinates": [
          [
            [
              39.15,
              21.45
            ],
            [
              39.25,
              21.45
            ],
            [
              39.25,
              21.55
            ],
            [
              39.15,
              21.55
            ],
            [
              39.15,
              21.45
            ]
          ]
        ]
      }
    },
    {
      "type": "Feature",
      "properties": {
        "territory_id": "JED-N",
        "name_en": "Jeddah North",
        "name_ar": "جدة - الشمال",
        "city": "Jeddah",
        "weight": 12
      },
      "geometry": {
        "type": "Polygon",
        "coordinates": [
          [
            [
              39.08,
              21.55
            ],
            [
              39.3,
              21.55
            ],
            [
              39.3,
              21.78
            ],
            [
              39.08,
              21.78
            ],
            [
              39.08,
              21.55
            ]
          ]
        ]
      }
    },
    {
      "type": "Feature",
      "properties": {
        "territory_id": "JED-S",
        "name_en": "Jeddah South",
        "name_ar": "جدة - الجنوب",
        "city": "Jeddah",
        "weight": 8
      },
      "geometry": {
        "type": "Polygon",
        "coordinates": [
          [
            [
              39.1,
              21.28
            ],
            [
              39.3,
              21.28
            ],
            [
              39.3,
              21.45
            ],
            [
              39.1,
              21.45
            ],
            [
              39.1,
              21.28
            ]
          ]
        ]
      }
    },
    {
      "type": "Feature",
      "properties": {
        "territory_id": "JED-E",
        "name_en": "Jeddah East",
        "name_ar": "جدة - الشرق",
        "city": "Jeddah",
        "weight": 7
      },
      "geometry": {
        "type": "Polygon",
        "coordinates": [
          [
            [
              39.25,
              21.4
            ],
            [
              39.46,
              21.4
            ],
            [
              39.46,
              21.62
            ],
            [
              39.25,
              21.62
            ],
            [
              39.25,
              21.4
            ]
          ]
        ]
      }
    },
    {
      "type": "Feature",
      "properties": {
        "territory_id": "DMM-C",
        "name_en": "Dammam Central",
        "name_ar": "الدمام - الوسط",
        "city": "Dammam",
        "weight": 7
      },
      "geometry": {
        "type": "Polygon",
        "coordinates": [
          [
            [
              50.05,
              26.38
            ],
            [
              50.16,
              26.38
            ],
            [
              50.16,
              26.49
            ],
            [
              50.05,
              26.49
            ],
            [
              50.05,
              26.38
            ]
          ]
        ]
      }
    },
    {
      "type": "Feature",
      "properties": {
        "territory_id": "DMM-N",
        "name_en": "Dammam North",
        "name_ar": "الدمام - الشمال",
        "city": "Dammam",
        "weight": 6
      },
      "geometry": {
        "type": "Polygon",
        "coordinates": [
          [
            [
              49.94,
              26.49
            ],
            [
              50.18,
              26.49
            ],
            [
              50.18,
              26.66
            ],
            [
              49.94,
              26.66
            ],
            [
              49.94,
              26.49
            ]
          ]
        ]
      }
    },
    {
      "type": "Feature",
      "properties": {
        "territory_id": "DMM-S",
        "name_en": "Dammam South",
        "name_ar": "الدمام - الجنوب",
        "city": "Dammam",
        "weight": 5
      },
      "geometry": {
        "type": "Polygon",
        "coordinates": [
          [
            [
              49.94,
              26.25
            ],
            [
              50.18,
              26.25
            ],
            [
              50.18,
              26.38
            ],
            [
              49.94,
              26.38
            ],
            [
              49.94,
              26.25
            ]
          ]
        ]
      }
    },
    {
      "type": "Feature",
      "properties": {
        "territory_id": "KHB-1",
        "name_en": "Khobar",
        "name_ar": "الخبر",
        "city": "Dammam",
        "weight": 6
      },
      "geometry": {
        "type": "Polygon",
        "coordinates": [
          [
            [
              50.15,
              26.22
            ],
            [
              50.28,
              26.22
            ],
            [
              50.28,
              26.4
            ],
            [
              50.15,
              26.4
            ],
            [
              50.15,
              26.22
            ]
          ]
        ]
      }
    },
    {
      "type": "Feature",
      "properties": {
        "territory_id": "DHR-1",
        "name_en": "Dhahran",
        "name_ar": "الظهران",
        "city": "Dammam",
        "weight": 4
      },
      "geometry": {
        "type": "Polygon",
        "coordinates": [
          [
            [
              50.08,
              26.26
            ],
            [
              50.18,
              26.26
            ],
            [
              50.18,
              26.38
            ],
            [
              50.08,
              26.38
            ],
            [
              50.08,
              26.26
            ]
          ]
        ]
      }
    },
    {
      "type": "Feature",
      "properties": {
        "territory_id": "MEC-C",
        "name_en": "Mecca Central",
        "name_ar": "مكة - الوسط",
        "city": "Mecca",
        "weight": 9
      },
      "geometry": {
        "type": "Polygon",
        "coordinates": [
          [
            [
              39.8,
              21.38
            ],
            [
              39.88,
              21.38
            ],
            [
              39.88,
              21.46
            ],
            [
              39.8,
              21.46
            ],
            [
              39.8,
              21.38
            ]
          ]
        ]
      }
    },
    {
      "type": "Feature",
      "properties": {
        "territory_id": "MEC-O",
        "name_en": "Mecca Outer",
        "name_ar": "مكة - الأطراف",
        "city": "Mecca",
        "weight": 6
      },
      "geometry": {
        "type": "Polygon",
        "coordinates": [
          [
            [
              39.68,
              21.28
            ],
            [
              39.98,
              21.28
            ],
            [
              39.98,
              21.58
            ],
            [
              39.68,
              21.58
            ],
            [
              39.68,
              21.28
            ]
          ]
        ]
      }
    },
    {
      "type": "Feature",
      "properties": {
        "territory_id": "MED-C",
        "name_en": "Medina Central",
        "name_ar": "المدينة - الوسط",
        "city": "Medina",
        "weight": 7
      },
      "geometry": {
        "type": "Polygon",
        "coordinates": [
          [
            [
              39.55,
              24.45
            ],
            [
              39.63,
              24.45
            ],
            [
              39.63,
              24.55
            ],
            [
              39.55,
              24.55
            ],
            [
              39.55,
              24.45
            ]
          ]
        ]
      }
    },
    {
      "type": "Feature",
      "properties": {
        "territory_id": "MED-O",
        "name_en": "Medina Outer",
        "name_ar": "المدينة - الأطراف",
        "city": "Medina",
        "weight": 5
      },
      "geometry": {
        "type": "Polygon",
        "coordinates": [
          [
            [
              39.44,
              24.36
            ],
            [
              39.72,
              24.36
            ],
            [
              39.72,
              24.64
            ],
            [
              39.44,
              24.64
            ],
            [
              39.44,
              24.36
            ]
          ]
        ]
      }
    }
  ]
}